[{"OBJECT_NAME":"STARLINK-3315","OBJECT_ID":"2022-001AX","EPOCH":"2026-03-09T12:36:12.160800","MEAN_MOTION":15.08860134,"ECCENTRICITY":0.00012256,"INCLINATION":53.2183,"RA_OF_ASC_NODE":179.8661,"ARG_OF_PERICENTER":74.4783,"MEAN_ANOMALY":285.6345,"EPHEMERIS_TYPE":0,"CLASSIFICATION_TYPE":"U","NORAD_CAT_ID":50848,"ELEMENT_SET_NO":999,"REV_AT_EPOCH":23024,"BSTAR":0.00017476248,"MEAN_MOTION_DOT":2.496e-5,"MEAN_MOTION_DDOT":0},{"OBJECT_NAME":"ASTRO-H (HITOMI)","OBJECT_ID":"2016-012A","EPOCH":"2026-03-09T04:06:47.322720","MEAN_MOTION":15.10001629,"ECCENTRICITY":0.0009877,"INCLINATION":31.0008,"RA_OF_ASC_NODE":359.8923,"ARG_OF_PERICENTER":325.8962,"MEAN_ANOMALY":34.1041,"EPHEMERIS_TYPE":0,"CLASSIFICATION_TYPE":"U","NORAD_CAT_ID":41337,"ELEMENT_SET_NO":999,"REV_AT_EPOCH":55215,"BSTAR":0.00025536822,"MEAN_MOTION_DOT":4.351e-5,"MEAN_MOTION_DDOT":0}]
